[{"OBJECT_NAME":"STARLINK-5512","OBJECT_ID":"2023-094AQ","EPOCH":"2026-03-09T07:02:09.809376","MEAN_MOTION":15.02533718,"ECCENTRICITY":0.00012306,"INCLINATION":43.0032,"RA_OF_ASC_NODE":19.2095,"ARG_OF_PERICENTER":263.415,"MEAN_ANOMALY":96.6552,"EPHEMERIS_TYPE":0,"CLASSIFICATION_TYPE":"U","NORAD_CAT_ID":57256,"ELEMENT_SET_NO":999,"REV_AT_EPOCH":14721,"BSTAR":-4.439056e-5,"MEAN_MOTION_DOT":-8.03e-6,"MEAN_MOTION_DDOT":0},{"OBJECT_NAME":"CZ-2C R\/B","OBJECT_ID":"2021-055C","EPOCH":"2026-03-09T16:47:26.920896","MEAN_MOTION":14.88109627,"ECCENTRICITY":0.00672888,"INCLINATION":35.0695,"RA_OF_ASC_NODE":218.1603,"ARG_OF_PERICENTER":136.1858,"MEAN_ANOMALY":224.4211,"EPHEMERIS_TYPE":0,"CLASSIFICATION_TYPE":"U","NORAD_CAT_ID":48862,"ELEMENT_SET_NO":999,"REV_AT_EPOCH":25639,"BSTAR":0.00028201568,"MEAN_MOTION_DOT":2.727e-5,"MEAN_MOTION_DDOT":0}]
